{
  "type": "FeatureCollection",
  "features": [
    {
      "type": "Feature",
      "properties": {},
      "geometry": {
        "coordinates": [
          [
            [
              76.07642200635922,
              29.066976790231408
            ],
            [
              76.11974549873946,
              29.369191778153024
            ],
            [
              76.04371387503954,
              29.42873377495684
            ],
            [
              75.90788299891531,
              29.455510408154865
            ],
            [
              75.80793682628996,
              29.45402275776081
            ],
            [
              75.7583908603722,
              29.42575325659611
            ],
            [
              75.70201393903659,
              29.39301148202975
            ],
            [
              75.62940271961375,
              29.361001558119426
            ],
            [
              75.56617356038655,
              29.32897440749653
            ],
            [
              75.51148759504383,
              29.276815101227342
            ],
            [
              75.45051535669677,
              29.185004989776303
            ],
            [
              75.43676624702675,
              29.155915084282384
            ],
            [
              75.43517981129557,
              29.125893051415787
            ],
            [
              75.44099674230984,
              29.080150341520536
            ],
            [
              75.45368822815908,
              29.045020938451415
            ],
            [
              75.6193561218594,
              28.99184935609003
            ],
            [
              75.77062623723825,
              28.97704968959539
            ],
            [
              75.95344069762444,
              28.980463669296185
            ],
            [
              76.0179544642026,
              28.991484227296496
            ],
            [
              76.05399897047812,
              29.009079659481785
            ],
            [
              76.07642200635922,
              29.066976790231408
            ]
          ]
        ],
        "type": "Polygon"
      }
    }
  ]
}